OBJECT_NAME,OBJECT_ID,EPOCH,MEAN_MOTION,ECCENTRICITY,INCLINATION,RA_OF_ASC_NODE,ARG_OF_PERICENTER,MEAN_ANOMALY,EPHEMERIS_TYPE,CLASSIFICATION_TYPE,NORAD_CAT_ID,ELEMENT_SET_NO,REV_AT_EPOCH,BSTAR,MEAN_MOTION_DOT,MEAN_MOTION_DDOT
IRIDIUM 135,2017-083A,2026-07-20T20:23:39.174144,14.34217533,.00021011,86.3984,307.9450,94.7660,265.3776,0,U,43070,999,44897,-.9826582E-5,-.8E-7,0
IRIDIUM 138,2017-083B,2026-07-20T19:19:43.100544,14.34217318,.0002055,86.4000,307.6640,95.5194,264.6236,0,U,43071,999,44895,.22876242E-4,.84E-6,0
IRIDIUM 116,2017-083C,2026-07-20T18:34:03.266688,14.34217170,.00025026,86.3986,307.9623,97.3299,262.8182,0,U,43072,999,44898,.38564691E-4,.128E-5,0
IRIDIUM 130,2017-083D,2026-07-20T19:28:51.210048,14.34218851,.00022962,86.3994,308.2250,100.2882,259.8572,0,U,43073,999,44893,.10980533E-3,.327E-5,0
IRIDIUM 151,2017-083E,2026-07-20T18:52:19.207488,14.34217842,.00022681,86.3988,308.0154,95.1496,264.9958,0,U,43074,999,44895,.18788474E-4,.72E-6,0
IRIDIUM 134,2017-083F,2026-07-20T18:06:39.182688,14.34217811,.00022383,86.3988,308.0373,96.1396,264.0054,0,U,43075,999,44891,.4347325E-5,.32E-6,0
IRIDIUM 137,2017-083G,2026-07-20T20:05:23.263584,14.34217581,.00025338,86.3988,308.0963,90.4594,269.6892,0,U,43076,999,44899,-.6619288E-5,.1E-7,0
IRIDIUM 141,2017-083H,2026-07-20T19:56:15.229248,14.34217364,.00021494,86.3985,307.9276,94.1902,265.9540,0,U,43077,999,44899,.9522323E-5,.46E-6,0
IRIDIUM 153,2017-083J,2026-07-20T17:06:55.392768,14.34217525,.00020215,86.3954,276.4546,95.9074,264.2352,0,U,43078,999,45008,-.5306052E-5,.5E-7,0
IRIDIUM 131,2017-083K,2026-07-20T19:37:59.196864,14.34217427,.00020941,86.3988,308.1211,93.4758,266.6678,0,U,43079,999,44892,-.12471396E-4,-.15E-6,0
IRIDIUM 144,2018-030A,2026-07-20T17:16:03.440928,14.34217383,.00023885,86.3954,276.3807,96.2416,263.9052,0,U,43249,999,43494,.14916444E-4,.62E-6,0
IRIDIUM 149,2018-030B,2026-07-20T17:25:11.442432,14.34217366,.0002134,86.3951,276.3444,93.9030,266.2410,0,U,43250,999,43496,-.12318322E-4,-.15E-6,0
IRIDIUM 157,2018-030C,2026-07-20T17:52:35.447808,14.34217951,.00022362,86.3951,276.3904,94.5633,265.5818,0,U,43251,999,43494,.31563157E-4,.108E-5,0
IRIDIUM 140,2018-030D,2026-07-20T21:40:55.407648,14.34219158,.00022709,86.3952,276.3367,95.5590,264.5865,0,U,43252,999,43502,.48015382E-4,.154E-5,0
IRIDIUM 145,2018-030E,2026-07-20T18:01:43.519296,14.34217338,.00025857,86.3952,276.3724,97.3671,262.7819,0,U,43253,999,43493,.37601E-7,.2E-6,0
IRIDIUM 146,2018-030F,2026-07-20T22:35:43.504800,14.34217229,.00022585,86.3953,276.3050,95.5417,264.6037,0,U,43254,999,43497,-.6209019E-5,.2E-7,0
IRIDIUM 148,2018-030G,2026-07-20T16:48:39.484800,14.34217972,.0002307,86.3954,276.4498,94.7759,265.3701,0,U,43255,999,43497,.37909379E-4,.126E-5,0
IRIDIUM 142,2018-030H,2026-07-20T17:43:27.506784,14.34217147,.00023212,86.3951,276.3213,96.5837,263.5623,0,U,43256,999,43494,-.5359592E-5,.5E-7,0
IRIDIUM 150,2018-030J,2026-07-20T21:59:11.460768,14.34217032,.00022154,86.3954,276.3645,96.2180,263.9268,0,U,43257,999,43499,-.1441172E-5,.16E-6,0
IRIDIUM 143,2018-030K,2026-07-20T18:10:51.466368,14.34217885,.00023311,86.3955,276.5247,95.7340,264.4121,0,U,43258,999,43490,.20144864E-4,.76E-6,0
IRIDIUM 161,2018-047C,2026-07-20T17:24:10.906272,14.43277404,.00021628,86.4456,74.4444,80.7439,279.4006,0,U,43478,999,42997,.4184823E-4,.161E-5,0
IRIDIUM 152,2018-047D,2026-07-20T17:31:34.237632,14.34217385,.00019608,86.3927,74.3032,84.0371,276.1048,0,U,43479,999,42729,-.28594762E-4,-.6E-6,0
IRIDIUM 147,2018-047E,2026-07-20T21:01:38.236800,14.34218010,.0002297,86.3932,74.2482,87.5600,272.5859,0,U,43480,999,42731,.21310846E-4,.79E-6,0
IRIDIUM 110,2018-047F,2026-07-20T21:10:46.094016,14.34217536,.00020188,86.3936,74.3385,78.2279,281.9143,0,U,43481,999,42730,.67401992E-4,.209E-5,0
IRIDIUM 162,2018-047G,2026-07-20T22:14:36.681216,14.43280371,.00021848,86.4454,74.2505,86.6280,273.5170,0,U,43482,999,42999,.49746812E-4,.188E-5,0
IRIDIUM 160,2018-061A,2026-07-20T01:27:38.431008,14.34217872,.00022091,86.3939,43.0457,86.9719,273.1729,0,U,43569,999,41808,.26041396E-4,.93E-6,0
IRIDIUM 166,2018-061B,2026-07-20T22:09:46.488672,14.34217638,.00022899,86.3937,42.6348,89.4383,270.7076,0,U,43570,999,41823,-.1910631E-5,.14E-6,0
IRIDIUM 158,2018-061C,2026-07-20T06:19:54.488640,14.34217825,.00021134,86.3937,42.9206,89.0737,271.0701,0,U,43571,999,41810,.44748091E-4,.145E-5,0
IRIDIUM 165,2018-061D,2026-07-20T06:56:26.506752,14.34217576,.00022444,86.3944,42.9569,91.1334,269.0119,0,U,43572,999,41813,.31762171E-4,.109E-5,0
IRIDIUM 155,2018-061E,2026-07-20T19:25:22.439136,14.34217882,.00021558,86.3936,42.6068,90.6460,269.4983,0,U,43573,999,41817,.11407834E-4,.52E-6,0
